[{"OBJECT_NAME":"TRANSPORTER-11 OBJECT A","OBJECT_ID":"2024-149A","EPOCH":"2026-03-09T17:54:54.302112","MEAN_MOTION":15.31141332,"ECCENTRICITY":0.00031096,"INCLINATION":97.378,"RA_OF_ASC_NODE":149.0949,"ARG_OF_PERICENTER":191.001,"MEAN_ANOMALY":169.1164,"EPHEMERIS_TYPE":0,"CLASSIFICATION_TYPE":"U","NORAD_CAT_ID":60468,"ELEMENT_SET_NO":999,"REV_AT_EPOCH":8683,"BSTAR":0.00036053677,"MEAN_MOTION_DOT":0.00010774,"MEAN_MOTION_DDOT":0},{"OBJECT_NAME":"STARLINK-34640","OBJECT_ID":"2025-167Q","EPOCH":"2026-03-09T05:00:29.304000","MEAN_MOTION":15.3018414,"ECCENTRICITY":0.00014422,"INCLINATION":53.1618,"RA_OF_ASC_NODE":29.0744,"ARG_OF_PERICENTER":60.4833,"MEAN_ANOMALY":299.6311,"EPHEMERIS_TYPE":0,"CLASSIFICATION_TYPE":"U","NORAD_CAT_ID":65092,"ELEMENT_SET_NO":999,"REV_AT_EPOCH":3340,"BSTAR":-0.00070455422,"MEAN_MOTION_DOT":-0.00021157,"MEAN_MOTION_DDOT":0}]
